{
  "type": "FeatureCollection",
  "features": [
    {
      "type": "Feature",
      "properties": {
        "norad_id": 31288,
        "name": "FENGYUN 1C DEB",
        "group": "fengyun-1c-debris",
        "lat": 49.3538425462936,
        "lon": -8.280605922614594,
        "alt_km": 579.0257934165356,
        "timestamp": "2025-12-27T14:26:30.803401+00:00",
        "meta_object_name": "FENGYUN 1C DEB",
        "meta_object_id": "1999-025BNW",
        "meta_epoch": "2025-12-27T05:02:07.678176",
        "meta_mean_motion": 14.97438425,
        "meta_eccentricity": 0.00224946,
        "meta_inclination": 98.7448,
        "meta_ra_of_asc_node": 160.9523,
        "meta_arg_of_pericenter": 255.742,
        "meta_mean_anomaly": 282.6559,
        "meta_ephemeris_type": 0,
        "meta_classification_type": "U",
        "meta_norad_cat_id": 31288,
        "meta_element_set_no": 999,
        "meta_rev_at_epoch": 97773,
        "meta_bstar": 0.0064443979,
        "meta_mean_motion_dot": 0.00076089,
        "meta_mean_motion_ddot": 0,
        "tle_line1": "1 31288U 99025BNW 25361.20981109  .00076089  00000+0  64444-2 0  9997",
        "tle_line2": "2 31288  98.7448 160.9523 0022494 255.7420 282.6559 14.97438425977733"
      },
      "geometry": {
        "type": "Point",
        "coordinates": [
          -8.280605922614594,
          49.3538425462936
        ]
      }
    },
    {
      "type": "Feature",
      "properties": {
        "norad_id": 31293,
        "name": "FENGYUN 1C DEB",
        "group": "fengyun-1c-debris",
        "lat": 40.233408627449414,
        "lon": -163.89331628610432,
        "alt_km": 741.871120297712,
        "timestamp": "2025-12-27T14:26:30.803411+00:00",
        "meta_object_name": "FENGYUN 1C DEB",
        "meta_object_id": "1999-025BPB",
        "meta_epoch": "2025-12-27T07:04:19.327296",
        "meta_mean_motion": 14.30818427,
        "meta_eccentricity": 0.01260291,
        "meta_inclination": 98.4229,
        "meta_ra_of_asc_node": 8.6074,
        "meta_arg_of_pericenter": 201.5814,
        "meta_mean_anomaly": 158.003,
        "meta_ephemeris_type": 0,
        "meta_classification_type": "U",
        "meta_norad_cat_id": 31293,
        "meta_element_set_no": 999,
        "meta_rev_at_epoch": 65452,
        "meta_bstar": 7.7688836e-05,
        "meta_mean_motion_dot": 1.78e-06,
        "meta_mean_motion_ddot": 0,
        "tle_line1": "1 31293U 99025BPB 25361.29466814  .00000178  00000+0  77689-4 0  9996",
        "tle_line2": "2 31293  98.4229   8.6074 0126029 201.5814 158.0030 14.30818427654527"
      },
      "geometry": {
        "type": "Point",
        "coordinates": [
          -163.89331628610432,
          40.233408627449414
        ]
      }
    },
    {
      "type": "Feature",
      "properties": {
        "norad_id": 31294,
        "name": "FENGYUN 1C DEB",
        "group": "fengyun-1c-debris",
        "lat": 79.06768457132114,
        "lon": -132.30312359780834,
        "alt_km": 900.3212661593161,
        "timestamp": "2025-12-27T14:26:30.803421+00:00",
        "meta_object_name": "FENGYUN 1C DEB",
        "meta_object_id": "1999-025BPC",
        "meta_epoch": "2025-12-25T22:57:37.291104",
        "meta_mean_motion": 14.15338572,
        "meta_eccentricity": 0.0099077,
        "meta_inclination": 98.5439,
        "meta_ra_of_asc_node": 355.0165,
        "meta_arg_of_pericenter": 302.8872,
        "meta_mean_anomaly": 56.2798,
        "meta_ephemeris_type": 0,
        "meta_classification_type": "U",
        "meta_norad_cat_id": 31294,
        "meta_element_set_no": 999,
        "meta_rev_at_epoch": 97040,
        "meta_bstar": 0.00048177,
        "meta_mean_motion_dot": 9.41e-06,
        "meta_mean_motion_ddot": 0,
        "tle_line1": "1 31294U 99025BPC 25359.95668161  .00000941  00000+0  48177-3 0  9993",
        "tle_line2": "2 31294  98.5439 355.0165 0099077 302.8872  56.2798 14.15338572970402"
      },
      "geometry": {
        "type": "Point",
        "coordinates": [
          -132.30312359780834,
          79.06768457132114
        ]
      }
    },
    {
      "type": "Feature",
      "properties": {
        "norad_id": 31295,
        "name": "FENGYUN 1C DEB",
        "group": "fengyun-1c-debris",
        "lat": 45.54772050725292,
        "lon": 13.70026369316021,
        "alt_km": 886.1634371198352,
        "timestamp": "2025-12-27T14:26:30.803431+00:00",
        "meta_object_name": "FENGYUN 1C DEB",
        "meta_object_id": "1999-025BPD",
        "meta_epoch": "2025-12-25T11:56:32.906976",
        "meta_mean_motion": 13.96834303,
        "meta_eccentricity": 0.0077253,
        "meta_inclination": 98.3163,
        "meta_ra_of_asc_node": 183.2226,
        "meta_arg_of_pericenter": 215.0084,
        "meta_mean_anomaly": 144.5989,
        "meta_ephemeris_type": 0,
        "meta_classification_type": "U",
        "meta_norad_cat_id": 31295,
        "meta_element_set_no": 999,
        "meta_rev_at_epoch": 95681,
        "meta_bstar": 0.00010445,
        "meta_mean_motion_dot": 1.11e-06,
        "meta_mean_motion_ddot": 0,
        "tle_line1": "1 31295U 99025BPD 25359.49760309  .00000111  00000+0  10445-3 0  9996",
        "tle_line2": "2 31295  98.3163 183.2226 0077253 215.0084 144.5989 13.96834303956819"
      },
      "geometry": {
        "type": "Point",
        "coordinates": [
          13.70026369316021,
          45.54772050725292
        ]
      }
    },
    {
      "type": "Feature",
      "properties": {
        "norad_id": 31296,
        "name": "FENGYUN 1C DEB",
        "group": "fengyun-1c-debris",
        "lat": -14.221755232118223,
        "lon": -79.49318842134872,
        "alt_km": 672.7968838085781,
        "timestamp": "2025-12-27T14:26:30.803442+00:00",
        "meta_object_name": "FENGYUN 1C DEB",
        "meta_object_id": "1999-025BPE",
        "meta_epoch": "2025-12-26T23:49:36.935904",
        "meta_mean_motion": 14.72184934,
        "meta_eccentricity": 0.00202093,
        "meta_inclination": 99.0658,
        "meta_ra_of_asc_node": 277.5093,
        "meta_arg_of_pericenter": 164.7773,
        "meta_mean_anomaly": 195.4043,
        "meta_ephemeris_type": 0,
        "meta_classification_type": "U",
        "meta_norad_cat_id": 31296,
        "meta_element_set_no": 999,
        "meta_rev_at_epoch": 97559,
        "meta_bstar": 0.0049763592,
        "meta_mean_motion_dot": 0.0003155,
        "meta_mean_motion_ddot": 0,
        "tle_line1": "1 31296U 99025BPE 25360.99278861  .00031550  00000+0  49764-2 0  9997",
        "tle_line2": "2 31296  99.0658 277.5093 0020209 164.7773 195.4043 14.72184934975595"
      },
      "geometry": {
        "type": "Point",
        "coordinates": [
          -79.49318842134872,
          -14.221755232118223
        ]
      }
    },
    {
      "type": "Feature",
      "properties": {
        "norad_id": 31297,
        "name": "FENGYUN 1C DEB",
        "group": "fengyun-1c-debris",
        "lat": 33.45709108462833,
        "lon": 133.60259738097247,
        "alt_km": 628.4364547516134,
        "timestamp": "2025-12-27T14:26:30.803453+00:00",
        "meta_object_name": "FENGYUN 1C DEB",
        "meta_object_id": "1999-025BPF",
        "meta_epoch": "2025-12-27T03:33:47.312064",
        "meta_mean_motion": 14.5712914,
        "meta_eccentricity": 0.01396402,
        "meta_inclination": 98.9353,
        "meta_ra_of_asc_node": 139.0841,
        "meta_arg_of_pericenter": 79.3017,
        "meta_mean_anomaly": 99.4334,
        "meta_ephemeris_type": 0,
        "meta_classification_type": "U",
        "meta_norad_cat_id": 31297,
        "meta_element_set_no": 999,
        "meta_rev_at_epoch": 99525,
        "meta_bstar": 0.00033993704,
        "meta_mean_motion_dot": 1.692e-05,
        "meta_mean_motion_ddot": 0,
        "tle_line1": "1 31297U 99025BPF 25361.14846426  .00001692  00000+0  33994-3 0  9997",
        "tle_line2": "2 31297  98.9353 139.0841 0139640  79.3017  99.4334 14.57129140995253"
      },
      "geometry": {
        "type": "Point",
        "coordinates": [
          133.60259738097247,
          33.45709108462833
        ]
      }
    },
    {
      "type": "Feature",
      "properties": {
        "norad_id": 31300,
        "name": "FENGYUN 1C DEB",
        "group": "fengyun-1c-debris",
        "lat": -73.13056243256584,
        "lon": -131.70734318451184,
        "alt_km": 871.4544784709287,
        "timestamp": "2025-12-27T14:26:30.803463+00:00",
        "meta_object_name": "FENGYUN 1C DEB",
        "meta_object_id": "1999-025BPJ",
        "meta_epoch": "2025-12-27T05:01:04.221696",
        "meta_mean_motion": 14.15191949,
        "meta_eccentricity": 0.00594493,
        "meta_inclination": 99.541,
        "meta_ra_of_asc_node": 81.5579,
        "meta_arg_of_pericenter": 19.063,
        "meta_mean_anomaly": 38.0781,
        "meta_ephemeris_type": 0,
        "meta_classification_type": "U",
        "meta_norad_cat_id": 31300,
        "meta_element_set_no": 999,
        "meta_rev_at_epoch": 96379,
        "meta_bstar": 0.0012875866,
        "meta_mean_motion_dot": 2.495e-05,
        "meta_mean_motion_ddot": 0,
        "tle_line1": "1 31300U 99025BPJ 25361.20907664  .00002495  00000+0  12876-2 0  9998",
        "tle_line2": "2 31300  99.5410  81.5579 0059449  19.0630  38.0781 14.15191949963797"
      },
      "geometry": {
        "type": "Point",
        "coordinates": [
          -131.70734318451184,
          -73.13056243256584
        ]
      }
    }
  ]
}